[{"OBJECT_NAME":"STARLINK-5356","OBJECT_ID":"2023-061AW","EPOCH":"2026-03-09T08:49:07.367232","MEAN_MOTION":15.02522148,"ECCENTRICITY":0.00015478,"INCLINATION":43.0034,"RA_OF_ASC_NODE":173.428,"ARG_OF_PERICENTER":276.3739,"MEAN_ANOMALY":83.6928,"EPHEMERIS_TYPE":0,"CLASSIFICATION_TYPE":"U","NORAD_CAT_ID":56418,"ELEMENT_SET_NO":999,"REV_AT_EPOCH":15700,"BSTAR":0.00015285899,"MEAN_MOTION_DOT":1.861e-5,"MEAN_MOTION_DDOT":0},{"OBJECT_NAME":"LEMUR-2-ROUNDTRIPPER","OBJECT_ID":"2025-009DG","EPOCH":"2026-03-09T23:04:13.111968","MEAN_MOTION":15.02085493,"ECCENTRICITY":0.00052564,"INCLINATION":97.7294,"RA_OF_ASC_NODE":151.904,"ARG_OF_PERICENTER":121.5792,"MEAN_ANOMALY":238.5946,"EPHEMERIS_TYPE":0,"CLASSIFICATION_TYPE":"U","NORAD_CAT_ID":62711,"ELEMENT_SET_NO":999,"REV_AT_EPOCH":6272,"BSTAR":0.00085047584,"MEAN_MOTION_DOT":0.00011123,"MEAN_MOTION_DDOT":0}]
